{
  "norad_id": 65260,
  "name": "2025-180B",
  "history": [
    {
      "epoch": "2026-03-19T02:37:32.356992Z",
      "apogee_km": 531.52299746881,
      "perigee_km": 513.2138863797518,
      "latitude_deg": -3.384052375642604e-05,
      "longitude_deg": -9.740073558706758,
      "height_km": 525.0086954952892,
      "semi_major_axis_km": 6900.505441924281,
      "eccentricity": 0.00132665,
      "inclination_deg": 97.5127,
      "raan_deg": 206.3085,
      "arg_perigee_deg": 272.7989,
      "mean_anomaly_deg": 87.1724,
      "mean_motion_rev_day": 15.14542302
    }
  ]
}