{"fetched_at":"2026-03-29T02:12:04Z","count":15717,"tles":[{"name":"2025-180B","line1":"1 65260U 25180B   26078.10940228  .00004368  00000+0  24009-3 0  9992","line2":"2 65260  97.5127 206.3085 0013266 272.7989  87.1724 15.14542302 32021","category":"Other"}]}